[
    {
        "CCSDS_OMM_VERS": "3.0",
        "COMMENT": "GENERATED VIA SPACE-TRACK.ORG API",
        "CREATION_DATE": "2024-10-21T17:49:28",
        "ORIGINATOR": "18 SPCS",
        "OBJECT_NAME": "SL-16 R/B",
        "OBJECT_ID": "1992-093B",
        "CENTER_NAME": "EARTH",
        "REF_FRAME": "TEME",
        "TIME_SYSTEM": "UTC",
        "MEAN_ELEMENT_THEORY": "SGP4",
        "EPOCH": "2024-10-21T04:56:38.550336",
        "MEAN_MOTION": "14.15315113",
        "ECCENTRICITY": "0.00051950",
        "INCLINATION": "71.0230",
        "RA_OF_ASC_NODE": "343.2216",
        "ARG_OF_PERICENTER": "327.9023",
        "MEAN_ANOMALY": "32.1783",
        "EPHEMERIS_TYPE": "0",
        "CLASSIFICATION_TYPE": "U",
        "NORAD_CAT_ID": "22285",
        "ELEMENT_SET_NO": "999",
        "REV_AT_EPOCH": "64177",
        "BSTAR": "-0.00004611500000",
        "MEAN_MOTION_DOT": "-0.00000137",
        "MEAN_MOTION_DDOT": "0.0000000000000",
        "SEMIMAJOR_AXIS": "7219.377",
        "PERIOD": "101.744",
        "APOAPSIS": "844.993",
        "PERIAPSIS": "837.492",
        "OBJECT_TYPE": "ROCKET BODY",
        "RCS_SIZE": "LARGE",
        "COUNTRY_CODE": "CIS",
        "LAUNCH_DATE": "1992-12-25",
        "SITE": "TTMTR",
        "DECAY_DATE": null,
        "FILE": "4530563",
        "GP_ID": "271182052",
        "TLE_LINE0": "0 SL-16 R/B",
        "TLE_LINE1": "1 22285U 92093B   24295.20600174 -.00000137  00000-0 -46115-4 0  9998",
        "TLE_LINE2": "2 22285  71.0230 343.2216 0005195 327.9023  32.1783 14.15315113641775"
    },
    {
        "CCSDS_OMM_VERS": "3.0",
        "COMMENT": "GENERATED VIA SPACE-TRACK.ORG API",
        "CREATION_DATE": "2024-10-22T06:36:16",
        "ORIGINATOR": "18 SPCS",
        "OBJECT_NAME": "SL-16 R/B",
        "OBJECT_ID": "1993-016B",
        "CENTER_NAME": "EARTH",
        "REF_FRAME": "TEME",
        "TIME_SYSTEM": "UTC",
        "MEAN_ELEMENT_THEORY": "SGP4",
        "EPOCH": "2024-10-22T02:47:42.483552",
        "MEAN_MOTION": "14.15179954",
        "ECCENTRICITY": "0.00101420",
        "INCLINATION": "71.0077",
        "RA_OF_ASC_NODE": "192.7489",
        "ARG_OF_PERICENTER": "357.8554",
        "MEAN_ANOMALY": "2.2523",
        "EPHEMERIS_TYPE": "0",
        "CLASSIFICATION_TYPE": "U",
        "NORAD_CAT_ID": "22566",
        "ELEMENT_SET_NO": "999",
        "REV_AT_EPOCH": "63093",
        "BSTAR": "0.00024449000000",
        "MEAN_MOTION_DOT": "0.00000428",
        "MEAN_MOTION_DDOT": "0.0000000000000",
        "SEMIMAJOR_AXIS": "7219.837",
        "PERIOD": "101.754",
        "APOAPSIS": "849.024",
        "PERIAPSIS": "834.380",
        "OBJECT_TYPE": "ROCKET BODY",
        "RCS_SIZE": "LARGE",
        "COUNTRY_CODE": "CIS",
        "LAUNCH_DATE": "1993-03-26",
        "SITE": "TTMTR",
        "DECAY_DATE": null,
        "FILE": "4530654",
        "GP_ID": "271237240",
        "TLE_LINE0": "0 SL-16 R/B",
        "TLE_LINE1": "1 22566U 93016B   24296.11646393  .00000428  00000-0  24449-3 0  9996",
        "TLE_LINE2": "2 22566  71.0077 192.7489 0010142 357.8554   2.2523 14.15179954630931"
    },
    {
        "CCSDS_OMM_VERS": "3.0",
        "COMMENT": "GENERATED VIA SPACE-TRACK.ORG API",
        "CREATION_DATE": "2024-10-21T17:49:28",
        "ORIGINATOR": "18 SPCS",
        "OBJECT_NAME": "SL-16 R/B",
        "OBJECT_ID": "1993-059B",
        "CENTER_NAME": "EARTH",
        "REF_FRAME": "TEME",
        "TIME_SYSTEM": "UTC",
        "MEAN_ELEMENT_THEORY": "SGP4",
        "EPOCH": "2024-10-21T05:22:44.253120",
        "MEAN_MOTION": "14.17089317",
        "ECCENTRICITY": "0.00194950",
        "INCLINATION": "70.9922",
        "RA_OF_ASC_NODE": "354.8480",
        "ARG_OF_PERICENTER": "260.4791",
        "MEAN_ANOMALY": "99.4130",
        "EPHEMERIS_TYPE": "0",
        "CLASSIFICATION_TYPE": "U",
        "NORAD_CAT_ID": "22803",
        "ELEMENT_SET_NO": "999",
        "REV_AT_EPOCH": "60806",
        "BSTAR": "0.00008783800000",
        "MEAN_MOTION_DOT": "0.00000129",
        "MEAN_MOTION_DDOT": "0.0000000000000",
        "SEMIMAJOR_AXIS": "7213.350",
        "PERIOD": "101.617",
        "APOAPSIS": "849.278",
        "PERIAPSIS": "821.153",
        "OBJECT_TYPE": "ROCKET BODY",
        "RCS_SIZE": "LARGE",
        "COUNTRY_CODE": "CIS",
        "LAUNCH_DATE": "1993-09-16",
        "SITE": "TTMTR",
        "DECAY_DATE": null,
        "FILE": "4530563",
        "GP_ID": "271181668",
        "TLE_LINE0": "0 SL-16 R/B",
        "TLE_LINE1": "1 22803U 93059B   24295.22412330  .00000129  00000-0  87838-4 0  9990",
        "TLE_LINE2": "2 22803  70.9922 354.8480 0019495 260.4791  99.4130 14.17089317608062"
    },
    {
        "CCSDS_OMM_VERS": "3.0",
        "COMMENT": "GENERATED VIA SPACE-TRACK.ORG API",
        "CREATION_DATE": "2024-10-22T06:36:16",
        "ORIGINATOR": "18 SPCS",
        "OBJECT_NAME": "COSMOS 2278",
        "OBJECT_ID": "1994-023A",
        "CENTER_NAME": "EARTH",
        "REF_FRAME": "TEME",
        "TIME_SYSTEM": "UTC",
        "MEAN_ELEMENT_THEORY": "SGP4",
        "EPOCH": "2024-10-22T02:04:41.049408",
        "MEAN_MOTION": "14.14175999",
        "ECCENTRICITY": "0.00066240",
        "INCLINATION": "71.0514",
        "RA_OF_ASC_NODE": "148.5990",
        "ARG_OF_PERICENTER": "73.5511",
        "MEAN_ANOMALY": "286.6339",
        "EPHEMERIS_TYPE": "0",
        "CLASSIFICATION_TYPE": "U",
        "NORAD_CAT_ID": "23087",
        "ELEMENT_SET_NO": "999",
        "REV_AT_EPOCH": "57385",
        "BSTAR": "-0.00001529200000",
        "MEAN_MOTION_DOT": "-0.00000076",
        "MEAN_MOTION_DDOT": "0.0000000000000",
        "SEMIMAJOR_AXIS": "7223.254",
        "PERIOD": "101.826",
        "APOAPSIS": "849.903",
        "PERIAPSIS": "840.334",
        "OBJECT_TYPE": "PAYLOAD",
        "RCS_SIZE": "LARGE",
        "COUNTRY_CODE": "CIS",
        "LAUNCH_DATE": "1994-04-23",
        "SITE": "TTMTR",
        "DECAY_DATE": null,
        "FILE": "4530657",
        "GP_ID": "271236779",
        "TLE_LINE0": "0 COSMOS 2278",
        "TLE_LINE1": "1 23087U 94023A   24296.08658622 -.00000076  00000-0 -15292-4 0  9996",
        "TLE_LINE2": "2 23087  71.0514 148.5990 0006624  73.5511 286.6339 14.14175999573851"
    },
    {
        "CCSDS_OMM_VERS": "3.0",
        "COMMENT": "GENERATED VIA SPACE-TRACK.ORG API",
        "CREATION_DATE": "2024-10-22T04:17:00",
        "ORIGINATOR": "18 SPCS",
        "OBJECT_NAME": "SL-16 R/B",
        "OBJECT_ID": "1994-023B",
        "CENTER_NAME": "EARTH",
        "REF_FRAME": "TEME",
        "TIME_SYSTEM": "UTC",
        "MEAN_ELEMENT_THEORY": "SGP4",
        "EPOCH": "2024-10-21T19:21:57.815424",
        "MEAN_MOTION": "14.14894999",
        "ECCENTRICITY": "0.00045810",
        "INCLINATION": "71.0006",
        "RA_OF_ASC_NODE": "49.0053",
        "ARG_OF_PERICENTER": "314.2233",
        "MEAN_ANOMALY": "45.8513",
        "EPHEMERIS_TYPE": "0",
        "CLASSIFICATION_TYPE": "U",
        "NORAD_CAT_ID": "23088",
        "ELEMENT_SET_NO": "999",
        "REV_AT_EPOCH": "57481",
        "BSTAR": "0.00001826700000",
        "MEAN_MOTION_DOT": "-0.00000012",
        "MEAN_MOTION_DDOT": "0.0000000000000",
        "SEMIMAJOR_AXIS": "7220.806",
        "PERIOD": "101.774",
        "APOAPSIS": "845.979",
        "PERIAPSIS": "839.364",
        "OBJECT_TYPE": "ROCKET BODY",
        "RCS_SIZE": "LARGE",
        "COUNTRY_CODE": "CIS",
        "LAUNCH_DATE": "1994-04-23",
        "SITE": "TTMTR",
        "DECAY_DATE": null,
        "FILE": "4530606",
        "GP_ID": "271212456",
        "TLE_LINE0": "0 SL-16 R/B",
        "TLE_LINE1": "1 23088U 94023B   24295.80691916 -.00000012  00000-0  18267-4 0  9993",
        "TLE_LINE2": "2 23088  71.0006  49.0053 0004581 314.2233  45.8513 14.14894999574813"
    },
    {
        "CCSDS_OMM_VERS": "3.0",
        "COMMENT": "GENERATED VIA SPACE-TRACK.ORG API",
        "CREATION_DATE": "2024-10-22T04:17:00",
        "ORIGINATOR": "18 SPCS",
        "OBJECT_NAME": "SL-8 R/B",
        "OBJECT_ID": "1994-041B",
        "CENTER_NAME": "EARTH",
        "REF_FRAME": "TEME",
        "TIME_SYSTEM": "UTC",
        "MEAN_ELEMENT_THEORY": "SGP4",
        "EPOCH": "2024-10-21T21:22:33.704832",
        "MEAN_MOTION": "13.78199592",
        "ECCENTRICITY": "0.00275990",
        "INCLINATION": "82.9429",
        "RA_OF_ASC_NODE": "93.8370",
        "ARG_OF_PERICENTER": "258.6079",
        "MEAN_ANOMALY": "254.2091",
        "EPHEMERIS_TYPE": "0",
        "CLASSIFICATION_TYPE": "U",
        "NORAD_CAT_ID": "23180",
        "ELEMENT_SET_NO": "999",
        "REV_AT_EPOCH": "52210",
        "BSTAR": "0.00004131600000",
        "MEAN_MOTION_DOT": "0.00000057",
        "MEAN_MOTION_DDOT": "0.0000000000000",
        "SEMIMAJOR_AXIS": "7348.416",
        "PERIOD": "104.484",
        "APOAPSIS": "990.562",
        "PERIAPSIS": "950.001",
        "OBJECT_TYPE": "ROCKET BODY",
        "RCS_SIZE": "LARGE",
        "COUNTRY_CODE": "CIS",
        "LAUNCH_DATE": "1994-07-14",
        "SITE": "PKMTR",
        "DECAY_DATE": null,
        "FILE": "4530606",
        "GP_ID": "271211970",
        "TLE_LINE0": "0 SL-8 R/B",
        "TLE_LINE1": "1 23180U 94041B   24295.89066788  .00000057  00000-0  41316-4 0  9997",
        "TLE_LINE2": "2 23180  82.9429  93.8370 0027599 258.6079 254.2091 13.78199592522106"
    }
]